OBJECT_NAME,OBJECT_ID,EPOCH,MEAN_MOTION,ECCENTRICITY,INCLINATION,RA_OF_ASC_NODE,ARG_OF_PERICENTER,MEAN_ANOMALY,EPHEMERIS_TYPE,CLASSIFICATION_TYPE,NORAD_CAT_ID,ELEMENT_SET_NO,REV_AT_EPOCH,BSTAR,MEAN_MOTION_DOT,MEAN_MOTION_DDOT
STARLINK-31169,2024-012Y,2026-06-09T06:54:19.433088,15.27575193,.0000513,43.0088,8.0344,292.6937,67.3861,0,U,58809,999,13524,-.43771E-4,-.1466E-4,0
NANOFF A,2023-185T,2026-06-09T10:45:12.567168,15.12246655,.0009354,97.5265,228.0039,344.0279,16.0656,0,U,58810,999,13187,.18564E-3,.3147E-4,0
SORAYA,2024-015A,2026-06-09T11:47:24.444096,14.42711528,.0009392,64.5134,103.2335,255.0318,104.9729,0,U,58817,999,12566,.52488E-4,.68E-6,0
2024-016A,2024-016A,2026-06-09T12:51:12.797856,15.54495481,.0006876,97.4478,255.5327,86.5351,273.6689,0,U,58820,999,13288,.42483E-3,.27943E-3,0
2024-016B,2024-016B,2026-06-09T11:36:16.154784,15.71681341,.0002514,97.4457,256.9511,119.0132,241.1383,0,U,58821,999,13296,.84508E-3,.109867E-2,0
2024-016C,2024-016C,2026-06-09T12:25:50.280384,15.25108161,.0009401,97.4366,241.1591,217.4059,142.6526,0,U,58822,999,13196,.33615E-3,.8355E-4,0
2024-016D,2024-016D,2026-06-09T12:09:51.408000,15.51948401,.0007234,97.4311,250.2297,105.2954,254.9098,0,U,58823,999,13258,.56806E-3,.34143E-3,0
STARLINK-31233,2024-017A,2026-06-09T05:44:31.351200,15.30189952,.0001431,53.1598,139.0327,99.3202,260.7961,0,U,58826,999,13419,.67238E-4,.1632E-4,0
STARLINK-31271,2024-017B,2026-06-09T06:22:30.196992,15.30211372,.0001352,53.1597,139.1937,80.6139,279.5015,0,U,58827,999,13407,.5045E-3,.14617E-3,0
STARLINK-31222,2024-017C,2026-06-09T05:06:31.121280,15.30200913,.0001308,53.1596,138.8614,76.0152,284.0994,0,U,58828,999,13407,-.31181E-4,-.1283E-4,0
STARLINK-31258,2024-017D,2026-06-09T04:19:34.462272,15.30192378,.00013221,53.1597,139.3674,95.9571,264.1580,0,U,58829,999,13406,.38557329E-4,.783E-5,0
STARLINK-31253,2024-017E,2026-06-09T04:29:46.216608,15.31693101,.00018205,53.1606,138.7064,142.4228,217.6901,0,U,58830,999,13407,.90188981E-4,.2434E-4,0
STARLINK-31232,2024-017F,2026-06-09T05:50:17.646720,15.31710777,.0001182,53.1599,138.3407,94.3093,265.8043,0,U,58831,999,13408,-.70814E-6,-.387E-5,0
STARLINK-31263,2024-017G,2026-06-09T05:17:22.381152,15.34396871,.0001401,53.1594,128.2606,78.7913,281.3247,0,U,58832,999,13433,.11736E-3,.359E-4,0
STARLINK-31171,2024-017J,2026-06-09T03:22:35.088096,15.30192313,.00015022,53.1590,115.9824,81.0047,279.1123,0,U,58834,999,13438,.69332778E-4,.1694E-4,0
STARLINK-31246,2024-017K,2026-06-09T05:39:56.732256,15.30193546,.0001134,53.1591,139.0058,98.1407,261.9722,0,U,58835,999,13407,.97205E-4,.252E-4,0
STARLINK-31251,2024-017L,2026-06-09T05:50:35.329344,15.30192765,.0001351,53.1600,139.0527,98.4258,261.6896,0,U,58836,999,13418,.29746E-4,.522E-5,0
STARLINK-31249,2024-017N,2026-06-09T04:25:39.206784,15.30192765,.00013625,53.1600,139.3958,91.1633,268.9524,0,U,58838,999,13406,.3717719E-4,.742E-5,0
STARLINK-31250,2024-017P,2026-06-09T05:11:19.017312,15.34380694,.0001461,53.1609,128.2326,72.6075,287.5088,0,U,58839,999,13417,.19976E-3,.6375E-4,0
STARLINK-31248,2024-017Q,2026-06-09T05:41:51.588096,15.34382575,.0001128,53.1592,150.3590,82.0446,278.0685,0,U,58840,999,13402,.16999E-4,.198E-5,0
STARLINK-31236,2024-017R,2026-06-09T04:34:46.645824,15.30183671,.0001331,53.1602,139.4329,99.2861,260.8291,0,U,58841,999,13406,.6994948E-5,-.152E-5,0
STARLINK-31228,2024-017S,2026-06-09T04:30:12.820032,15.30194049,.00013679,53.1610,139.4129,90.2653,269.8505,0,U,58842,999,13406,.17732929E-4,.166E-5,0
STARLINK-31280,2024-017T,2026-06-09T06:13:23.222784,15.30187555,.0001353,53.1598,139.1495,90.7901,269.3255,0,U,58843,999,13407,.11597E-4,-.16E-6,0
STARLINK-31269,2024-017U,2026-06-09T11:40:40.112832,15.30181275,.0001445,53.1595,228.0600,125.4013,234.7123,0,U,58844,999,13282,.16238E-4,.121E-5,0
STARLINK-31264,2024-017V,2026-06-09T12:01:46.701408,15.30192220,.000117,53.1596,227.4503,72.8256,287.2873,0,U,58845,999,13283,.85401E-4,.217E-4,0
STARLINK-31273,2024-017W,2026-06-09T06:17:56.478336,15.30196832,.000139,53.1599,139.1702,84.1878,275.9281,0,U,58846,999,13407,-.35384E-4,-.1407E-4,0
STARLINK-31262,2024-017X,2026-06-09T10:38:21.587424,15.30185511,.0001207,53.1599,227.7942,87.9578,272.1561,0,U,58847,999,13282,.10502E-3,.2751E-4,0
AAC-HSI-SAT3,2023-174DH,2026-06-09T11:35:27.407040,15.15740792,.0011533,97.3412,220.1301,42.5536,317.6589,0,U,58848,999,14273,.14984E-3,.2796E-4,0
2024-018A,2024-018A,2026-06-09T12:52:46.560864,14.39493904,.0437254,58.6860,256.6310,96.7053,268.3921,0,U,58849,999,12407,.20622E-3,.1784E-4,0
2024-018B,2024-018B,2026-06-09T13:15:33.210144,14.43814321,.042029,58.6924,244.8430,99.6601,265.2158,0,U,58850,999,12429,.28732E-3,.27E-4,0
2024-018C,2024-018C,2026-06-09T12:09:42.359328,14.41033349,.0429988,58.6828,250.3357,99.0686,265.9244,0,U,58851,999,12418,.23897E-3,.2126E-4,0
STARLINK-31238,2024-019A,2026-06-09T02:11:32.042976,15.27582688,.00010511,43.0007,92.5118,269.0273,91.0458,0,U,58853,999,13306,.50077508E-4,.1116E-4,0
STARLINK-31158,2024-019B,2026-06-09T11:45:44.276256,15.27564228,.0001247,43.0023,90.3443,274.8298,85.2412,0,U,58854,999,13312,.77279E-4,.1864E-4,0
STARLINK-31237,2024-019C,2026-06-09T02:04:07.134816,15.27595845,.00010431,42.9909,92.4881,158.6587,201.4309,0,U,58855,999,13306,.12957313E-3,.3307E-4,0
STARLINK-31244,2024-019D,2026-06-09T11:53:07.371744,15.27585798,.0000632,43.0111,90.3864,253.8609,106.2173,0,U,58856,999,13312,.10011E-3,.2494E-4,0
STARLINK-31226,2024-019F,2026-06-09T02:50:23.503776,15.27581688,.00010972,43.0026,92.7195,272.4480,87.6246,0,U,58858,999,13306,.43418589E-4,.933E-5,0
STARLINK-31197,2024-019G,2026-06-08T12:59:38.732928,15.27586755,.0001117,43.0007,96.1301,253.8647,106.2082,0,U,58859,999,13297,.6214179E-4,.1449E-4,0
STARLINK-31213,2024-019H,2026-06-09T11:55:01.981344,15.27480150,.0000778,42.9982,90.3979,140.1252,219.9657,0,U,58860,999,13312,.85243E-3,.23197E-3,0
STARLINK-31199,2024-019J,2026-06-09T11:49:25.277088,15.27580832,.0001823,42.9950,90.3645,281.3719,78.6928,0,U,58861,999,13312,.47308E-4,.104E-4,0
STARLINK-31200,2024-019K,2026-06-09T11:51:17.808768,15.27560968,.0002498,42.9872,90.3707,285.2661,74.7914,0,U,58862,999,13312,-.70855E-4,-.2211E-4,0
STARLINK-31149,2024-019L,2026-06-08T13:14:14.186112,15.27565438,.00011005,43.0015,95.3501,268.8441,91.2284,0,U,58863,999,13298,.85239889E-4,.2083E-4,0
STARLINK-31242,2024-019M,2026-06-09T12:00:31.301856,15.27580363,.0001801,42.9968,90.4264,274.7982,85.2664,0,U,58864,999,13312,.12639E-3,.3217E-4,0
STARLINK-31223,2024-019N,2026-06-09T12:02:22.808832,15.27573415,.0001507,42.9971,90.4396,281.8269,78.2413,0,U,58865,999,13310,.77634E-4,.1874E-4,0
STARLINK-31219,2024-019P,2026-06-09T02:02:16.954944,15.27580290,.00012575,43.0026,92.4705,268.0013,92.0695,0,U,58866,999,13304,.27767614E-4,.502E-5,0
STARLINK-31198,2024-019Q,2026-06-09T02:15:14.241312,15.27575995,.00011451,43.0043,92.5186,271.8690,88.2031,0,U,58867,999,13304,.5542849E-5,-.11E-5,0
STARLINK-31196,2024-019R,2026-06-08T13:05:11.721984,15.27575892,.0001201,43.0042,96.1550,263.6154,96.4561,0,U,58868,999,13295,.5605932E-5,-.108E-5,0
STARLINK-31203,2024-019S,2026-06-09T11:44:34.308672,15.27573791,.0001278,43.0029,86.8587,275.2972,84.7733,0,U,58869,999,13316,.99894E-4,.2487E-4,0
STARLINK-31201,2024-019T,2026-06-09T06:33:38.602080,15.27585782,.0001312,43.0039,91.3058,270.5401,89.5300,0,U,58870,999,13307,.14015E-3,.3597E-4,0
STARLINK-31214,2024-019U,2026-06-09T02:09:42.436800,15.27570534,.00016439,43.0008,92.4906,272.9045,87.1619,0,U,58871,999,13304,.512333E-5,-.121E-5,0
STARLINK-31215,2024-019V,2026-06-09T02:13:23.593152,15.27574260,.00013259,43.0050,92.5280,270.7749,89.2951,0,U,58872,999,13304,.3366585E-5,-.17E-5,0
STARLINK-31177,2024-019W,2026-06-09T02:05:59.529984,15.27586645,.00012955,42.9993,92.4799,268.5589,91.5114,0,U,58873,999,13306,.92931342E-4,.2297E-4,0
STARLINK-30945,2024-019X,2026-06-08T12:46:41.461248,15.27573912,.00008617,43.0025,96.0518,274.6887,85.3866,0,U,58874,999,13297,.12543091E-4,.83E-6,0
STARLINK-31212,2024-019Y,2026-06-09T01:56:43.853568,15.27581514,.000163,43.0032,92.4380,262.9852,97.0814,0,U,58875,999,13304,.44648616E-4,.967E-5,0
STARLINK-31306,2024-020A,2026-06-09T13:07:46.193952,15.34403237,.0000946,53.1575,255.1321,62.0652,298.0446,0,U,58876,999,13332,.15936E-3,.5012E-4,0
STARLINK-31326,2024-020B,2026-06-09T12:41:40.720128,15.31701897,.000123,53.1602,255.7277,94.8229,265.2912,0,U,58877,999,13213,.45596E-4,.105E-4,0
STARLINK-31300,2024-020C,2026-06-09T12:40:30.036288,15.34399475,.0001293,53.1594,255.0155,118.6071,241.5061,0,U,58878,999,13214,.19769E-3,.6308E-4,0
STARLINK-31296,2024-020D,2026-06-09T10:55:56.258400,15.30190955,.0001105,53.1592,230.4072,78.9412,281.1713,0,U,58879,999,13248,.14077E-3,.3811E-4,0
STARLINK-31328,2024-020E,2026-06-09T12:28:28.782048,15.30201167,.0001171,53.1595,240.6667,50.7536,309.3568,0,U,58880,999,13234,.1718E-3,.4733E-4,0
STARLINK-31260,2024-020F,2026-06-09T13:10:47.936352,15.34400985,.0000875,53.1580,255.1446,61.4748,298.6342,0,U,58881,999,13214,.79206E-4,.2301E-4,0
STARLINK-31323,2024-020G,2026-06-09T12:43:32.037024,15.34394927,.0001281,53.1608,255.0300,92.4564,267.6585,0,U,58882,999,13214,.28712E-4,.594E-5,0
STARLINK-31209,2024-020H,2026-06-09T12:13:14.548224,15.34388805,.0001669,53.1601,254.9019,81.7774,278.3418,0,U,58883,999,13214,.20705E-3,.6623E-4,0
STARLINK-31315,2024-020J,2026-06-09T12:22:21.271872,15.30192538,.0001247,53.1592,229.9475,85.6599,274.4545,0,U,58884,999,13249,.76204E-4,.1898E-4,0
STARLINK-31318,2024-020K,2026-06-09T12:34:58.796832,15.31671539,.000104,53.1597,255.6935,65.1396,294.9714,0,U,58885,999,13213,-.35234E-4,-.1457E-4,0
STARLINK-31320,2024-020L,2026-06-09T12:04:08.829408,15.34405229,.0001163,53.1598,254.8605,97.5190,262.5945,0,U,58886,999,13214,.29109E-3,.9473E-4,0
STARLINK-31321,2024-020M,2026-06-09T13:04:44.232960,15.34388300,.0000757,53.1598,255.1184,93.6546,266.4543,0,U,58887,999,13330,.9363E-4,.2788E-4,0
